#aP2004  1  1  0  0  0.00000000      96 ORBIT IGS00 HLM  IGS
## 1251 345600.00000000   900.00000000 53005 0.0000000000000
+   29     1  2  3  4  5  6  7  8  9 10 11 13 14 15 16 17 18
+         20 21 22 23 24 25 26 27 28 29 30 31  0  0  0  0  0
+          0  0  0  0  0  0  0  0  0  0  0  0  0  0  0  0  0
+          0  0  0  0  0  0  0  0  0  0  0  0  0  0  0  0  0
+          0  0  0  0  0  0  0  0  0  0  0  0  0  0  0  0  0
++         3  3  3  3  3  4  3  3  3  3  4  4  4  4  4  4  4
++         4  4  6  6  3  3  4  3  4  3  3  3  0  0  0  0  0
++         0  0  0  0  0  0  0  0  0  0  0  0  0  0  0  0  0
++         0  0  0  0  0  0  0  0  0  0  0  0  0  0  0  0  0
++         0  0  0  0  0  0  0  0  0  0  0  0  0  0  0  0  0
%c cc cc ccc ccc cccc cccc cccc cccc ccccc ccccc ccccc ccccc
%c cc cc ccc ccc cccc cccc cccc cccc ccccc ccccc ccccc ccccc
%f  0.0000000  0.000000000  0.00000000000  0.000000000000000
%f  0.0000000  0.000000000  0.00000000000  0.000000000000000
%i    0    0    0    0      0      0      0      0         0
%i    0    0    0    0      0      0      0      0         0
/* FINAL ORBIT COMBINATION FROM WEIGHTED AVERAGE OF:        
/* cod emr esa gfz jpl ngs sio                              
/* REFERENCED TO GPS CLOCK AND TO WEIGHTED MEAN POLE:       
/* CLK ANT Z-OFFSET (M): II/IIA 1.023; IIR 0.000            
*  2004  1  1 19  0  0.00000000
P  1  16433.999065  -5247.008248 -20034.033440    322.446250
P  2  21930.841360  -1873.254389 -13985.571989   -249.450706
P  3  24235.667958  10803.881461   2694.497965     74.401777
P  4  -6361.903851 -22999.100756 -11294.609619    -35.194007
P  5 -23129.158206  12729.333567   1757.206847     11.699210
P  6  -8297.148760  13270.869892 -21272.781034     -2.682739
P  7 -11542.001415 -19147.053028  14866.168913    639.739806
P  8   -486.429775 -26116.534889   3567.846229    389.444401
P  9 -14598.549081   7630.111785  20336.660060    -23.776133
P 10 -20812.325866  -1900.002936 -16591.912504     37.009255
P 11  14535.213819 -10817.462636  19389.322399     87.157550
P 13   5713.095023 -13813.048508 -21999.447417    -31.709930
P 14  13477.395276  18900.015055  12945.814468    -18.114250
P 15   4037.423808  24073.210227   9955.449470    206.896173
P 16  16689.481751   6631.680482 -19504.885813     16.217622
P 17 -15106.031037    983.854543 -21589.963920    100.655520
P 18 -12206.454974  17604.205052  15592.794642     -3.374444
P 20  22970.840490 -13274.140922  -1406.438138   -196.528640
P 21  -6320.977812  24963.349801  -5668.612486     69.871806
P 22   3750.105040  14986.817073  21776.455524    -95.291685
P 23   6828.992152  13312.327810  22478.271986 999999.999999
P 24 -12624.937753 -11552.421312 -19988.410515     86.987514
P 25  10088.447315  20771.133765 -12797.743738     58.025451
P 26 -23465.066663  -6298.290035  11181.420027    465.295555
P 27   5502.435596 -24265.483871  -8044.415692    873.875320
P 28    162.987529 -16555.080632  20879.845155     12.383977
P 29 -24032.339384  -9764.197858   6045.076520    201.770525
P 30 -16533.619264  18019.521841 -10471.649749    719.274730
P 31  22628.843209   1248.528784  13788.755745     37.182736
*  2004  1  1 19 15  0.00000000
P  1  18285.189706  -3974.905946 -18692.368019    322.445999
P  2  20567.706910   -597.157000 -15945.410991   -249.456727
P  3  24231.706573  11168.130295    -78.477905     74.403203
P  4  -6077.585502 -24149.364600  -8743.038250    -35.200192
P  5 -23001.847802  12239.426914   4540.285695     11.700337
P  6 -10438.542616  12039.127878 -21075.543495     -2.682725
P  7  -9906.689730 -18505.869981  16771.400154    639.737282
P  8   -204.157459 -26373.169249    701.404502    389.440131
P  9 -14743.136842   5169.407927  21016.795882    -23.778812
P 10 -19129.840387  -2946.137446 -18350.476228     37.011394
P 11  14864.159897  -8546.958713  20265.672697     87.159528
P 13   7866.442318 -12526.297557 -22098.702297    -31.709798
P 14  12017.277300  18229.314156  15164.671347    -18.114132
P 15   3717.997025  25071.138210   7306.527100    206.901231
P 16  14732.424262   7857.392526 -20591.919062     16.218325
P 17 -14833.089294  -1521.871793 -21810.790262    100.674950
P 18 -13780.052366  18180.392211  13452.347019     -3.376196
P 20  23084.486980 -13056.419805   1455.808900   -196.526742
P 21  -6555.694639  24141.193510  -8380.736567     69.872197
P 22   1556.551993  16023.566569  21300.695084    -95.285577
P 23   4625.922324  14372.531322  22380.504815 999999.999999
P 24 -12381.087269 -13812.916441 -18677.500513     86.988843
P 25   9926.515082  22167.166758 -10432.878473     58.027259
P 26 -24372.370780  -7012.777417   8628.873290    465.287119
P 27   5861.383240 -23136.362231 -10616.531252    873.887730
P 28   2228.179901 -17582.231780  19863.075985     12.385766
P 29 -24370.053552 -10182.338117   3223.843557    201.777269
P 30 -17558.962573  18312.385841  -7919.055004    719.291648
P 31  23832.642373   2160.203415  11546.869408     37.217506
*  2004  1  1 19 30  0.00000000
P  1  20051.064823  -2888.272387 -17024.979505    322.445906
P  2  19097.245102    873.492540 -17613.811372   -249.463726
P  3  23959.824712  11408.711960  -2850.127860     74.405273
P  4  -5845.072564 -25013.383315  -6038.121217    -35.206479
P  5 -22649.106859  11557.025395   7244.214120     11.701945
P  6 -12595.962231  10931.013462 -20509.926919     -2.682827
P  7  -8064.805122 -17864.792569  18397.804337    639.734758
P  8     67.728188 -26316.014414  -2177.375058    389.435426
P  9 -15012.502451   2665.222214  21319.693516    -23.781306
P 10 -17354.162028  -4182.092232 -19797.184223     37.011845
P 11  15302.976524  -6216.188684  20792.751720     87.161672
P 13  10079.462500 -11365.391657 -21819.084023    -31.709856
P 14  10312.417725  17531.783847  17123.248212    -18.113831
P 15   3460.914532  25773.766772   4529.211462    206.904239
P 16  12754.899552   9239.372285 -21322.635969     16.218664
P 17 -14694.190176  -4034.641272 -21650.366917    100.694486
P 18 -15100.806117  18709.038022  11078.387596     -3.378023
P 20  22939.514533 -12667.830833   4292.995313   -196.524878
P 21  -6830.299577  23031.890120 -10945.698627     69.873134
P 22   -515.326205  17137.845641  20464.133791    -95.279195
P 23   2513.440328  15542.404101  21916.006090 999999.999999
P 24 -12257.960696 -15912.530385 -17036.470815     86.991332
P 25   9799.324359  23290.132135  -7885.853550     58.027690
P 26 -25056.479324  -7535.088993   5931.540896    465.278748
P 27   6305.321249 -21740.524451 -12996.587129    873.900347
P 28   4127.464436 -18644.701574  18506.827946     12.387579
P 29 -24439.506856 -10442.973349    347.442988    201.783987
P 30 -18327.122301  18486.970293  -5230.453373    719.308019
P 31  24837.259979   2898.880141   9106.456280     37.252281
*  2004  1  1 19 45  0.00000000
P  1  21684.529289  -1987.151605 -15061.341620    322.447430
P  2  17563.508710   2529.263198 -18958.930080   -249.469685
P  3  23409.772601  11558.643693  -5573.436852     74.407527
P  4  -5628.691953 -25574.963885  -3227.234549    -35.212868
P  5 -22101.720504  10663.291292   9821.736178     11.703853
P  6 -14724.098117   9960.571024 -19586.362365     -2.682070
P  7  -6041.550928 -17257.722160  19718.843234    639.732314
P  8    366.668351 -25948.115122  -5018.043649    389.431290
P  9 -15406.065470    168.269764  21240.931895    -23.782881
P 10 -15531.903203  -5601.224352 -20906.907625     37.013332
P 11  15851.229392  -3869.866496  20961.836281     87.164381
P 13  12305.746395 -10349.931664 -21165.145286    -31.709542
P 14   8383.968624  16847.346147  18788.079484    -18.113643
P 15   3229.972733  26166.912318   1672.468013    206.909049
P 16  10801.954401  10759.321375 -21684.320608     16.219130
P 17 -14690.361531  -6504.035354 -21113.819226    100.713822
P 18 -16160.057905  19149.002503   8511.876454     -3.379517
P 20  22561.765610 -12080.938791   7056.236877   -196.522747
P 21  -7177.625189  21658.381365 -13318.841634     69.873803
P 22  -2431.241905  18297.207278  19280.829440    -95.273100
P 23    529.579792  16793.026314  21091.897359 999999.999999
P 24 -12233.643599 -17809.171133 -15094.810063     86.994135
P 25   9672.320672  24124.555672  -5201.677849     58.029531
P 26 -25487.108366  -7890.582950   3135.112520    465.270523
P 27   6860.869557 -20109.281276 -15141.011882    873.913224
P 28   5834.154732 -19704.308981  16833.284810     12.389623
P 29 -24219.915856 -10578.813143  -2534.899706    201.790807
P 30 -18845.221572  18506.759642  -2451.767171    719.324659
P 31  25610.231055   3483.569559   6510.197987     37.287108
EOF
